[{"OBJECT_NAME":"STARLINK-34779","OBJECT_ID":"2025-165C","EPOCH":"2026-03-09T17:01:35.419008","MEAN_MOTION":15.05645667,"ECCENTRICITY":1.748e-5,"INCLINATION":97.6021,"RA_OF_ASC_NODE":147.2494,"ARG_OF_PERICENTER":148.6913,"MEAN_ANOMALY":211.4324,"EPHEMERIS_TYPE":0,"CLASSIFICATION_TYPE":"U","NORAD_CAT_ID":65058,"ELEMENT_SET_NO":999,"REV_AT_EPOCH":3479,"BSTAR":0.00045003279,"MEAN_MOTION_DOT":6.438e-5,"MEAN_MOTION_DDOT":0},{"OBJECT_NAME":"OBJECT H","OBJECT_ID":"2017-042H","EPOCH":"2026-03-09T21:54:40.929408","MEAN_MOTION":15.07257911,"ECCENTRICITY":0.00117342,"INCLINATION":97.4058,"RA_OF_ASC_NODE":233.05,"ARG_OF_PERICENTER":93.954,"MEAN_ANOMALY":266.303,"EPHEMERIS_TYPE":0,"CLASSIFICATION_TYPE":"U","NORAD_CAT_ID":42832,"ELEMENT_SET_NO":999,"REV_AT_EPOCH":47198,"BSTAR":0.00041037265,"MEAN_MOTION_DOT":6.138e-5,"MEAN_MOTION_DDOT":0}]
